NORAD_CAT_ID,OBJECT_NAME,OBJECT_TYPE,EPOCH,MEAN_MOTION,ECCENTRICITY,INCLINATION,RA_OF_ASC_NODE,ARG_OF_PERICENTER,MEAN_ANOMALY,BSTAR,MEAN_MOTION_DOT,MEAN_MOTION_DDOT,TLE_LINE0,TLE_LINE1,TLE_LINE2,SEMIMAJOR_AXIS,PERIOD,APOGEE,PERIGEE,DECAYED
51130.0,STARLINK-3395,PAYLOAD,2023-09-27 12:07:11,15.08859677,0.0001695,53.2171,353.2734,63.3054,296.8111,0.00097417,0.00015258,0.0,0 STARLINK-3395,1 51130U 22005AC  23270.50499861  .00015258  00000-0  97417-3 0  9997,2 51130  53.2171 353.2734 0001695  63.3054 296.8111 15.08859677 93736,6917.82,95.436,540.858,538.513,0.0
51130.0,STARLINK-3395,PAYLOAD,2023-09-28 11:57:59,15.08839473,0.0001826,53.2168,348.8157,56.1332,303.9834,0.00019632,2.838e-05,0.0,0 STARLINK-3395,1 51130U 22005AC  23271.49860291  .00002838  00000-0  19632-3 0  9998,2 51130  53.2168 348.8157 0001826  56.1332 303.9834 15.08839473 95002,6917.882,95.438,541.01,538.484,0.0
51130.0,STARLINK-3395,PAYLOAD,2023-09-28 15:08:45,15.08843835,0.0001826,53.2176,348.2199,55.7721,304.3444,0.00025521,3.776e-05,0.0,0 STARLINK-3395,1 51130U 22005AC  23271.63108224  .00003776  00000-0  25521-3 0  9991,2 51130  53.2176 348.2199 0001826  55.7721 304.3444 15.08843835 93904,6917.869,95.437,540.997,538.47,0.0
51130.0,STARLINK-3395,PAYLOAD,2023-09-29 11:48:46,15.08844253,0.0001696,53.2168,344.3529,67.7247,292.3924,8.4639e-05,1.059e-05,0.0,0 STARLINK-3395,1 51130U 22005AC  23272.49220281  .00001059  00000-0  84639-4 0  9992,2 51130  53.2168 344.3529 0001696  67.7247 292.3924 15.08844253 94039,6917.867,95.437,540.906,538.559,0.0
51130.0,STARLINK-3395,PAYLOAD,2023-09-29 14:59:32,15.08852066,0.0001621,53.217,343.7574,70.1287,289.988,0.00019239,2.776e-05,0.0,0 STARLINK-3395,1 51130U 22005AC  23272.62467694  .00002776  00000-0  19239-3 0  9998,2 51130  53.2170 343.7574 0001621  70.1287 289.9880 15.08852066 95175,6917.844,95.437,540.83,538.587,0.0
51130.0,STARLINK-3395,PAYLOAD,2023-10-01 11:30:19,15.08854268,0.0001582,53.217,335.4342,94.553,265.5643,0.00032229,4.847e-05,0.0,0 STARLINK-3395,1 51130U 22005AC  23274.47939134  .00004847  00000-0  32229-3 0  9991,2 51130  53.2170 335.4342 0001582  94.5530 265.5643 15.08854268 95457,6917.837,95.437,540.796,538.607,0.0
51130.0,STARLINK-3395,PAYLOAD,2023-10-01 13:05:42,15.08855897,0.0001555,53.2167,335.1361,91.0655,269.0516,0.00079558,0.00012402,0.0,0 STARLINK-3395,1 51130U 22005AC  23274.54563197  .00012402  00000-0  79558-3 0  9993,2 51130  53.2167 335.1361 0001555  91.0655 269.0516 15.08855897 94345,6917.832,95.437,540.773,538.621,0.0
51130.0,STARLINK-3395,PAYLOAD,2023-10-01 21:02:39,15.0883741,0.0002688,53.2164,333.6478,74.5028,285.6261,0.0010179,0.00015948,0.0,0 STARLINK-3395,1 51130U 22005AC  23274.87684100  .00015948  00000-0  10179-2 0  9998,2 51130  53.2164 333.6478 0002688  74.5028 285.6261 15.08837410 94399,6917.888,95.438,541.613,537.894,0.0
51130.0,STARLINK-3395,PAYLOAD,2023-10-02 09:45:44,15.08820065,0.0001802,53.216,331.2695,75.2443,284.8748,0.00080122,0.00012479,0.0,0 STARLINK-3395,1 51130U 22005AC  23275.40676678  .00012479  00000-0  80122-3 0  9991,2 51130  53.2160 331.2695 0001802  75.2443 284.8748 15.08820065 95598,6917.941,95.439,541.053,538.56,0.0
51130.0,STARLINK-3395,PAYLOAD,2023-10-02 20:53:26,15.08836482,0.0001735,53.2157,329.1881,76.2691,283.8494,0.0013561,0.00021358,0.0,0 STARLINK-3395,1 51130U 22005AC  23275.87045032  .00021358  00000-0  13561-2 0  9994,2 51130  53.2157 329.1881 0001735  76.2691 283.8494 15.08836482 94549,6917.891,95.438,540.956,538.556,0.0
51130.0,STARLINK-3395,PAYLOAD,2023-10-03 11:11:54,15.08860212,0.0001705,53.2151,326.5124,75.4668,284.6513,0.0013732,0.00021646,0.0,0 STARLINK-3395,1 51130U 22005AC  23276.46660663  .00021646  00000-0  13732-2 0  9993,2 51130  53.2151 326.5124 0001705  75.4668 284.6513 15.08860212 95759,6917.819,95.436,540.863,538.504,0.0
51130.0,STARLINK-3395,PAYLOAD,2023-10-03 15:58:03,15.08871182,0.0001709,53.2148,325.6199,75.1125,285.0056,0.001459,0.00023028,0.0,0 STARLINK-3395,1 51130U 22005AC  23276.66532266  .00023028  00000-0  14590-2 0  9991,2 51130  53.2148 325.6199 0001709  75.1125 285.0056 15.08871182 94660,6917.785,95.436,540.832,538.468,0.0
51130.0,STARLINK-3395,PAYLOAD,2023-10-04 03:05:46,15.08841248,0.0001555,53.2155,323.5383,76.6082,283.5083,0.00065632,0.00010173,0.0,0 STARLINK-3395,1 51130U 22005AC  23277.12900744  .00010173  00000-0  65632-3 0  9994,2 51130  53.2155 323.5383 0001555  76.6082 283.5083 15.08841248 95852,6917.877,95.437,540.817,538.666,0.0
51130.0,STARLINK-3395,PAYLOAD,2023-10-04 09:27:18,15.0885555,0.0001695,53.215,322.3481,81.2107,278.9077,0.00068215,0.0001059,0.0,0 STARLINK-3395,1 51130U 22005AC  23277.39396518  .00010590  00000-0  68215-3 0  9994,2 51130  53.2150 322.3481 0001695  81.2107 278.9077 15.08855550 94770,6917.833,95.437,540.87,538.525,0.0
51130.0,STARLINK-3395,PAYLOAD,2023-10-05 02:56:33,15.08843377,0.0001738,53.2141,319.0778,88.3901,271.729,0.00051817,7.969e-05,0.0,0 STARLINK-3395,1 51130U 22005AC  23278.12260750  .00007969  00000-0  51817-3 0  9990,2 51130  53.2141 319.0778 0001738  88.3901 271.7290 15.08843377 96000,6917.87,95.437,540.937,538.533,0.0
51130.0,STARLINK-3395,PAYLOAD,2023-10-05 09:18:05,15.08848948,0.0001744,53.216,317.8877,92.1726,267.9466,0.00027467,4.087e-05,0.0,0 STARLINK-3395,1 51130U 22005AC  23278.38756512  .00004087  00000-0  27467-3 0  9996,2 51130  53.2160 317.8877 0001744  92.1726 267.9466 15.08848948 94922,6917.853,95.437,540.925,538.512,0.0
51130.0,STARLINK-3395,PAYLOAD,2023-10-05 14:04:14,15.08856205,0.0001852,53.2161,316.9935,96.2203,263.9,0.00046772,7.167e-05,0.0,0 STARLINK-3395,1 51130U 22005AC  23278.58628181  .00007167  00000-0  46772-3 0  9990,2 51130  53.2161 316.9935 0001852  96.2203 263.9000 15.08856205 94951,6917.831,95.437,540.977,538.415,0.0
51130.0,STARLINK-3395,PAYLOAD,2023-10-06 02:47:20,15.08835611,0.0001911,53.2148,314.6168,95.7416,264.3794,5.6989e-05,6.19e-06,0.0,0 STARLINK-3395,1 51130U 22005AC  23279.11621036  .00000619  00000-0  56989-4 0  9999,2 51130  53.2148 314.6168 0001911  95.7416 264.3794 15.08835611 96152,6917.894,95.438,541.081,538.437,0.0
51130.0,STARLINK-3395,PAYLOAD,2023-10-06 12:19:39,15.08846938,0.0001738,53.2163,312.8326,96.5736,263.5454,0.00031945,4.801e-05,0.0,0 STARLINK-3395,1 51130U 22005AC  23279.51364738  .00004801  00000-0  31945-3 0  9997,2 51130  53.2163 312.8326 0001738  96.5736 263.5454 15.08846938 95096,6917.859,95.437,540.927,538.522,0.0
51130.0,STARLINK-3395,PAYLOAD,2023-10-07 08:59:40,15.08844017,0.000169,53.2161,308.9642,96.6488,263.4697,0.00025253,3.734e-05,0.0,0 STARLINK-3395,1 51130U 22005AC  23280.37477024  .00003734  00000-0  25253-3 0  9995,2 51130  53.2161 308.9642 0001690  96.6488 263.4697 15.08844017 96346,6917.868,95.437,540.902,538.564,0.0
51130.0,STARLINK-3395,PAYLOAD,2023-10-07 12:10:26,15.08844829,0.0001682,53.216,308.3693,96.976,263.1424,0.00026298,3.9e-05,0.0,0 STARLINK-3395,1 51130U 22005AC  23280.50724985  .00003900  00000-0  26298-3 0  9996,2 51130  53.2160 308.3693 0001682  96.9760 263.1424 15.08844829 95246,6917.866,95.437,540.894,538.567,0.0
51130.0,STARLINK-3395,PAYLOAD,2023-10-08 02:28:54,15.08836712,0.0001722,53.2157,305.6919,100.349,259.7696,0.00013667,1.888e-05,0.0,0 STARLINK-3395,1 51130U 22005AC  23281.10341409  .00001888  00000-0  13667-3 0  9998,2 51130  53.2157 305.6919 0001722 100.3490 259.7696 15.08836712 96456,6917.89,95.438,540.947,538.564,0.0
51130.0,STARLINK-3395,PAYLOAD,2023-10-08 10:25:50,15.08849853,0.0001574,53.2157,304.2076,88.0826,272.0346,0.00029942,4.482e-05,0.0,0 STARLINK-3395,1 51130U 22005AC  23281.43460911  .00004482  00000-0  29942-3 0  9990,2 51130  53.2157 304.2076 0001574  88.0826 272.0346 15.08849853 96501,6917.85,95.437,540.804,538.626,0.0
51130.0,STARLINK-3395,PAYLOAD,2023-10-08 12:01:13,15.08853199,0.0001679,53.2163,303.9117,95.3799,264.7385,0.0003628,5.493e-05,0.0,0 STARLINK-3395,1 51130U 22005AC  23281.50084785  .00005493  00000-0  36280-3 0  9995,2 51130  53.2163 303.9117 0001679  95.3799 264.7385 15.08853199 95391,6917.84,95.437,540.867,538.544,0.0
51130.0,STARLINK-3395,PAYLOAD,2023-10-09 00:44:18,15.08837271,0.0001789,53.2159,301.529,96.1498,263.9698,4.6029e-05,4.44e-06,0.0,0 STARLINK-3395,1 51130U 22005AC  23282.03077385  .00000444  00000-0  46029-4 0  9996,2 51130  53.2159 301.5290 0001789  96.1498 263.9698 15.08837271 96593,6917.889,95.438,540.991,538.516,0.0
51130.0,STARLINK-3395,PAYLOAD,2023-10-09 08:41:14,15.08843005,0.0001745,53.2161,300.0435,87.7809,272.3383,0.00011958,1.616e-05,0.0,0 STARLINK-3395,1 51130U 22005AC  23282.36197237  .00001616  00000-0  11958-3 0  9995,2 51130  53.2161 300.0435 0001745  87.7809 272.3383 15.08843005 95524,6917.871,95.437,540.943,538.529,0.0
51130.0,STARLINK-3395,PAYLOAD,2023-10-09 13:27:23,15.08848934,0.0001762,53.2163,299.1511,100.7298,259.3892,0.0001925,2.778e-05,0.0,0 STARLINK-3395,1 51130U 22005AC  23282.56068824  .00002778  00000-0  19250-3 0  9999,2 51130  53.2163 299.1511 0001762 100.7298 259.3892 15.08848934 96679,6917.853,95.437,540.937,538.499,0.0
51130.0,STARLINK-3395,PAYLOAD,2023-10-10 00:35:05,15.0883699,0.0001646,53.2156,297.0721,92.2389,267.8792,4.7343e-05,4.65e-06,0.0,0 STARLINK-3395,1 51130U 22005AC  23283.02437401  .00000465  00000-0  47343-4 0  9998,2 51130  53.2156 297.0721 0001646  92.2389 267.8792 15.08836990 96748,6917.89,95.438,540.893,538.616,0.0
51130.0,STARLINK-3395,PAYLOAD,2023-10-10 08:32:01,15.08849007,0.0001797,53.2159,295.5857,86.2727,273.847,0.00025335,3.747e-05,0.0,0 STARLINK-3395,1 51130U 22005AC  23283.35557046  .00003747  00000-0  25335-3 0  9994,2 51130  53.2159 295.5857 0001797  86.2727 273.8470 15.08849007 96798,6917.853,95.437,540.961,538.475,0.0
51130.0,STARLINK-3395,PAYLOAD,2023-10-10 18:04:20,15.08824461,0.0001477,53.2148,293.8013,91.7293,268.3869,-0.00025652,-4.366e-05,0.0,0 STARLINK-3395,1 51130U 22005AC  23283.75301630 -.00004366  00000-0 -25652-3 0  9996,2 51130  53.2148 293.8013 0001477  91.7293 268.3869 15.08824461 96850,6917.928,95.439,540.815,538.771,0.0
